MONOLITH                
1 49052U 21068A   26068.54548855  .00008348  00000+0  53656-3 0  9993
2 49052  37.0220 141.2957 0002679 131.6464 228.4511 15.08010119252226
STARLINK-4276           
1 53179U 22083AZ  26068.54305976  .00000907  00000+0  75071-4 0  9990
2 53179  53.2161 124.3794 0001504  87.0970 273.0194 15.08840608201892
